{"spkid": "50773952", "covariance": {"elements": [{"sigma": 2.83557267915356e-07, "name": "e", "units": null, "value": ".3037998183849686", "title": "eccentricity", "label": "e"}, {"label": "q", "sigma": 3.52550806725727e-07, "name": "q", "title": "perihelion distance", "value": ".7957949630566342", "units": "au"}, {"label": "tp", "name": "tp", "sigma": 8.06114391743353e-05, "title": "time of perihelion passage", "value": "2458205.158479892582", "units": "TDB"}, {"label": "node", "sigma": 0.000232311502792472, "name": "om", "units": "deg", "value": "232.2422592582766", "title": "longitude of the ascending node"}, {"sigma": 0.000270403768567091, "name": "w", "units": "deg", "title": "argument of perihelion", "value": "215.207031640398", "label": "peri"}, {"title": "inclination", "value": "3.588669835185956", "units": "deg", "sigma": 1.33191516611619e-05, "name": "i", "label": "i"}], "data": [["8.040472418762117E-14", "-9.996147748587461E-14", "2.015445640999672E-11", "-3.422461618223112E-11", "4.478671098645356E-11", "1.142882046940121E-12"], ["-9.996147748587461E-14", "1.242920713229609E-13", "-2.518287699869865E-11", "4.299508553380732E-11", "-5.622543403091559E-11", "-1.450019598908629E-12"], ["2.015445640999672E-11", "-2.518287699869865E-11", "6.498204125757562E-9", "-1.345163752261555E-8", "1.725986139839658E-8", "5.891838139506511E-10"], ["-3.422461618223112E-11", "4.299508553380732E-11", "-1.345163752261555E-8", "5.39686343296967E-8", "-6.237789783008222E-8", "-2.81401137040468E-9"], ["4.478671098645356E-11", "-5.622543403091559E-11", "1.725986139839658E-8", "-6.237789783008222E-8", "7.311819805528494E-8", "3.209239501488126E-9"], ["1.142882046940121E-12", "-1.450019598908629E-12", "5.891838139506511E-10", "-2.81401137040468E-9", "3.209239501488126E-9", "1.773998009730327E-10"]], "labels": ["e", "q", "tp", "node", "peri", "i"], "epoch": "2458365.5"}, "elements": [{"units": null, "title": "eccentricity", "value": ".3035523011109267", "name": "e", "sigma": "2.8427E-7", "label": "e"}, {"label": "a", "sigma": "4.0348E-8", "name": "a", "value": "1.142262287386601", "title": "semi-major axis", "units": "au"}, {"units": "au", "title": "perihelion distance", "value": ".7955259415781676", "name": "q", "sigma": "3.5254E-7", "label": "q"}, {"value": "3.595122844272781", "title": "inclination; angle with respect to x-y ecliptic plane", "units": "deg", "name": "i", "sigma": "1.3342E-5", "label": "i"}, {"label": "node", "units": "deg", "value": "232.0780759877852", "title": "longitude of the ascending node", "name": "om", "sigma": ".00023146"}, {"sigma": ".00026954", "name": "w", "title": "argument of perihelion", "value": "215.4587488023304", "units": "deg", "label": "peri"}, {"label": "M", "title": "mean anomaly", "value": "257.1742522822942", "units": "deg", "sigma": "7.3344E-5", "name": "ma"}, {"sigma": "9.7237E-5", "name": "tp", "title": "time of perihelion passage", "value": "2461327.863961875781", "units": "TDB", "label": "tp"}, {"label": "period", "title": "sidereal orbital period", "value": "445.9099718988569", "units": "d", "name": "per", "sigma": "2.3626E-5"}, {"label": "n", "units": "deg/d", "value": ".8073378544708946", "title": "mean motion", "sigma": "4.2777E-8", "name": "n"}, {"units": "au", "value": "1.488998633195034", "title": "aphelion distance", "sigma": "5.2596E-8", "name": "ad", "label": "Q"}], "epoch": "2461200.5"}